OBJECT_NAME,OBJECT_ID,EPOCH,MEAN_MOTION,ECCENTRICITY,INCLINATION,RA_OF_ASC_NODE,ARG_OF_PERICENTER,MEAN_ANOMALY,EPHEMERIS_TYPE,CLASSIFICATION_TYPE,NORAD_CAT_ID,ELEMENT_SET_NO,REV_AT_EPOCH,BSTAR,MEAN_MOTION_DOT,MEAN_MOTION_DDOT
GOSAT-GW (IBUKI GW),2025-141A,2026-06-04T18:44:48.259104,14.67553151,.0001426,98.0569,93.3001,83.2515,276.8852,0,U,64694,999,5002,.16729E-3,.901E-5,0
IONOSFERA-M 3,2025-155A,2026-06-04T20:34:38.793216,14.21484329,.0000253,98.6020,118.0733,191.2243,168.8928,0,U,64876,999,4465,.54997E-4,.77E-6,0
IONOSFERA-M 4,2025-155B,2026-06-04T19:43:29.189568,14.21486453,.0000633,98.6024,117.9562,110.5790,249.5456,0,U,64877,999,4464,.54004E-4,.75E-6,0
MICROCARB,2025-156A,2026-06-04T02:25:46.425792,14.72311835,.00153208,97.9831,232.4719,317.6941,42.3084,0,U,64899,999,4604,.11374772E-3,.67E-5,0
CO3D 3,2025-156B,2026-06-04T06:52:21.965376,15.20198523,.00009539,97.4326,234.1647,142.6428,217.4873,0,U,64900,999,4757,.16609469E-3,.3529E-4,0
CO3D 4,2025-156C,2026-06-04T06:52:36.441696,15.20201049,.00010455,97.4328,234.1648,39.2400,320.8911,0,U,64901,999,4757,.26561877E-3,.5687E-4,0
CO3D 2,2025-156D,2026-06-04T06:04:34.216320,15.20205422,.00013142,97.4327,234.0312,119.3951,240.7415,0,U,64902,999,4756,.24398235E-3,.5218E-4,0
CO3D 1,2025-156E,2026-06-04T06:04:47.219520,15.20197002,.00010989,97.4326,234.0313,119.7472,240.3873,0,U,64903,999,4756,.24573982E-3,.5255E-4,0
PRSC-S1,2025-164A,2026-06-03T22:30:17.493408,15.06328784,.00076379,41.1316,2.4261,267.4450,92.5490,0,U,65055,999,4643,.36642822E-3,.5313E-4,0
SENTINEL-6B,2025-264A,2026-06-04T04:52:45.263424,12.80929598,.000806,66.0384,162.1463,269.2892,90.7199,0,U,66514,999,2550,.18263E-4,-.57E-6,0
CAS500-3,2025-274F,2026-06-04T05:44:50.944128,14.88289034,.0005971,97.7446,83.5854,145.0910,215.0700,0,U,66655,999,2822,.17689E-3,.1582E-4,0
CSG-3,2026-001A,2026-06-04T07:18:29.672640,14.82159941,.0001304,97.8886,339.0932,93.2972,266.8390,0,U,67304,999,2255,.59453E-4,.421E-5,0
PRSC-E03,2026-092A,2026-06-04T17:28:36.739200,15.06609431,.0005347,37.9994,163.1460,280.9320,79.0840,0,U,68835,999,607,.17506E-3,.2535E-4,0
CAS500-2,2026-100AK,2026-06-04T15:33:45.490752,15.20434131,.0011573,97.4084,53.7208,74.0899,286.1611,0,U,69013,999,490,.35748E-3,.7744E-4,0
